NUSAT-1 (FRESCO)        
1 41557U 16033B   22156.37863691  .00008511  00000+0  25691-3 0  9994
2 41557  97.3877 254.0568 0011994  68.2890   0.0558 15.34447087335532
BEESAT-4                
1 41619U 16040W   22156.08894982  .00008821  00000+0  29815-3 0  9992
2 41619  97.2170 207.0510 0010844 153.2467 206.9336 15.30815246318836
CAS-2T & KS-1Q          
1 41847U 16066G   22155.89236559  .00000300  00000+0  56051-4 0  9998
2 41847  98.5513 220.5754 0362773 247.3864 108.8575 14.38566062292541
NAYIF-1 (EO-88)         
1 42017U 17008BX  22156.17406697  .00008928  00000+0  27122-3 0  9999
2 42017  97.2688 222.4690 0003344 286.4345  73.6530 15.34287750295199
ZHUHAI-1 02 (CAS-4B)    
1 42759U 17034B   22156.43545137  .00002503  00000+0  15673-3 0  9994
2 42759  43.0191  38.9396 0009445 222.3714 307.0955 15.11823797274532
ZHUHAI-1 01 (CAS-4A)    
1 42761U 17034D   22156.20339550  .00002790  00000+0  17272-3 0  9997
2 42761  43.0183  39.0153 0009746 223.2678 282.8848 15.11917524274502
MAX VALIER SAT          
1 42778U 17036P   22155.87193821  .00005238  00000+0  20112-3 0  9995
2 42778  97.2055 197.4063 0011047  22.0903 338.0810 15.26816884274989
RADFXSAT (FOX-1B)       
1 43017U 17073E   22155.67258043  .00001543  00000+0  12139-3 0  9994
2 43017  97.6767  50.3879 0247656 229.4990 128.4411 14.81336342245227
FOX-1D (AO-92)          
1 43137U 18004AC  22156.18677355  .00005438  00000+0  19446-3 0  9995
2 43137  97.3683 231.4552 0008608  55.3699 304.8352 15.29189989244463
DIWATA-2B               
1 43678U 18084H   22156.58021767  .00000242  00000+0  29595-4 0  9992
2 43678  97.9686 289.7066 0009231 331.8276  28.2447 14.92150661196084
ES'HAIL 2               
1 43700U 18090A   22156.31234539  .00000154  00000+0  00000+0 0  9996
2 43700   0.0186 322.3185 0000986  97.8231 331.8340  1.00269969 13152
FOX-1CLIFF (AO-95)      
1 43770U 18099N   22156.15280057  .00001228  00000+0  11332-3 0  9997
2 43770  97.6160 222.8171 0013022 322.5779  37.4711 14.96390701191170
ITASAT 1                
1 43786U 18099AE  22155.61242113  .00001585  00000+0  14416-3 0  9997
2 43786  97.6242 223.2072 0013465 316.3367  43.6788 14.96540979191131
JY1SAT (JO-97)          
1 43803U 18099AX  22156.16908697  .00001058  00000+0  96734-4 0  9993
2 43803  97.6197 223.5020 0013633 312.1065  47.8997 14.97019297191236
UWE-4                   
1 43880U 18111E   22156.51167226  .00001081  00000+0  96100-4 0  9990
2 43880  97.6700  63.0315 0012513   9.1287 351.0160 14.98102340185913
NEXUS (FO-99)           
1 43937U 19003F   22156.07406421  .00006948  00000+0  23720-3 0  9992
2 43937  97.1307 189.9093 0020685 192.4477 167.6257 15.30414477188084
PSAT2 (NO-104)          
1 44354U 19036R   22155.62601266  .00061884 -53776-5  56686-3 0  9998
2 44354  28.5251 267.1893 0235544 185.8991 173.8809 15.38182813162707
JAISAT-1                
1 44419U 19038F   22156.43369267  .00003909  00000+0  19957-3 0  9993
2 44419  97.6354 126.4628 0019813 167.1990 192.9750 15.17155674161230
DUCHIFAT-3              
1 44854U 19089C   22156.39984655  .00001927  00000+0  15419-3 0  9998
2 44854  36.9662 171.7992 0007007 123.9170 236.2181 15.01009105136120
CAS-6 (TO-108)          
1 44881U 19093C   22156.49062763  .00000419  00000+0  59868-4 0  9993
2 44881  97.8923 235.8708 0014004 221.3145 138.7000 14.81716019133009
RS-44 & BREEZE-KM R/B   
1 44909U 19096E   22155.68187102  .00000032  00000+0  85183-4 0  9992
2 44909  82.5226 238.7580 0217065 349.9025   9.7748 12.79713333113873
ORBITAL FACTORY 2 (OF-2)
1 45113U 19071C   22156.27349029  .00013743  00000+0  29584-3 0  9992
2 45113  51.6381 119.2681 0010448 118.0262 242.1783 15.44867256131498
HUSKYSAT-1 (HO-107)     
1 45119U 19071J   22155.62505589  .00013424  00000+0  29777-3 0  9991
2 45119  51.6380 122.4141 0010317 113.1079 247.0996 15.44000514131381
BY70-2                  
1 45857U 20042B   22156.45736942  .00005342  00000+0  71757-3 0  9996
2 45857  97.9536 233.4119 0012083 149.5025 210.6784 14.79671434103685
SALSAT                  
1 46495U 20068K   22155.79241534  .00001815  00000+0  13397-3 0  9994
2 46495  97.7286  97.0890 0015717 324.7523  35.2662 15.04461545 92289
BY70-3                  
1 46839U 20079N   22156.49973654  .00014500  00000+0  34699-3 0  9994
2 46839  97.1976 228.7529 0005328  32.7279  63.3641 15.41543275 88404
RADFXSAT-2 (AO-109)     
1 47311U 21002C   22155.68503918  .00004499  00000+0  18877-3 0  9995
2 47311  60.6868  50.3065 0013884 321.4488  38.5607 15.25122831 76513
UVSQ-SAT                
1 47438U 21006AB  22155.60394535  .00003141  00000+0  16884-3 0  9993
2 47438  97.4373 214.8787 0010667 325.5896  34.4644 15.15566509 75332
DIY-1 (ARDUIQUBE)       
1 47963U 21022AH  22155.98117640  .00007959  00000+0  45092-3 0  9999
2 47963  97.5331  57.4884 0017425 167.2912 192.8761 15.13146781 65060
XW-3 (CAS-9)            
1 50466U 21131B   22156.55609933  .00000041  00000+0  28160-4 0  9990
2 50466  98.5804 233.8152 0004952 169.1370 190.9925 14.38496564 23200
TEVEL-3                 
1 50988U 22002E   22156.54092537  .00004893  00000+0  27071-3 0  9990
2 50988  97.4811 223.7224 0011274 104.5713   1.2440 15.14265411 21611
TEVEL-8                 
1 50989U 22002F   22156.46243178  .00004837  00000+0  26808-3 0  9996
2 50989  97.4826 223.6614 0011331 104.1182 268.4554 15.14212853 21604
TEVEL-5                 
1 50998U 22002Q   22156.42413372  .00005268  00000+0  28722-3 0  9993
2 50998  97.4806 223.6884 0012776 101.9061 313.9184 15.14736095 21600
TEVEL-6                 
1 50999U 22002R   22156.56513211  .00004792  00000+0  26161-3 0  9998
2 50999  97.4798 223.8264 0012892 101.5418   4.3393 15.14738612 21628
TEVEL-1                 
1 51013U 22002AF  22156.33771067  .00004868  00000+0  26956-3 0  9992
2 51013  97.4803 223.5085 0010999 104.3534 323.4080 15.14239806 21581
TEVEL-7                 
1 51062U 22002CG  22156.27650618  .00004906  00000+0  27192-3 0  9993
2 51062  97.4817 223.4688 0011253 103.9171 329.1720 15.14201406 21572
TEVEL-4                 
1 51063U 22002CH  22156.54751663  .00004843  00000+0  26850-3 0  9996
2 51063  97.4817 223.7328 0011250 103.6295   3.6087 15.14196461 21617
TEVEL-2                 
1 51069U 22002CP  22156.54210346  .00004868  00000+0  26939-3 0  9995
2 51069  97.4798 223.7146 0011202 104.6769   2.4418 15.14257548 21612
